LANDSAT 9               
1 49260U 21088A   24201.92620023  .00000989  00000+0  22946-3 0  9994
2 49260  98.2304 271.1073 0001300  94.1517 265.9830 14.57112971149466
